0 FENGYUN 1C DEB
1 31289U 99025BNX 13283.10692148  .00009177  00000-0  49521-3 0  6867
2 31289 097.6091 156.7164 0313071 030.8227 331.1237 14.81548150355936
0 FENGYUN 1C DEB
1 31289U 99025BNX 13285.49208572  .00012713  00000-0  68692-3 0  6876
2 31289 097.6088 158.9936 0311943 022.9390 093.0119 14.81620554356283
0 FENGYUN 1C DEB
1 31289U 99025BNX 13288.13219260  .00020247  00000-0  10894-2 0  6888
2 31289 097.6093 161.5054 0311757 014.3019 135.1736 14.81690891356673
0 FENGYUN 1C DEB
1 31289U 99025BNX 13290.48955157  .00017728  00000-0  95480-3 0  6897
2 31289 097.6084 163.7501 0311304 006.5815 109.8558 14.81764358357029
0 FENGYUN 1C DEB
1 31289U 99025BNX 13292.44887909  .00016563  00000-0  89304-3 0  6900
2 31289 097.6071 165.6166 0310878 000.1316 121.8365 14.81818752357314
0 FENGYUN 1C DEB
1 31289U 99025BNX 13294.47397112  .00018438  00000-0  99394-3 0  6911
2 31289 097.6068 167.5453 0310472 353.4875 125.0217 14.81875729357616
0 FENGYUN 1C DEB
1 31289U 99025BNX 13295.48655505  .00018847  00000-0  10159-2 0  6922
2 31289 097.6065 168.5097 0310281 350.1570 126.9836 14.81908009357763
